0 ARIANE 5 R/B
1 27387U 02009B   13282.80388432  .00000045  00000-0  30028-4 0    09
2 27387 098.2770 250.0882 0032454 195.7834 223.7863 14.35615975608340
0 ARIANE 5 R/B
1 27387U 02009B   13283.84846015  .00000057  00000-0  33973-4 0    16
2 27387 098.2771 251.0909 0032521 192.6911 222.3486 14.35616398608491
0 ARIANE 5 R/B
1 27387U 02009B   13286.84555847  .00000061  00000-0  35440-4 0    37
2 27387 098.2777 253.9675 0032728 183.7347 232.0010 14.35617032608926
0 ARIANE 5 R/B
1 27387U 02009B   13288.10699791  .00000099  00000-0  48326-4 0    44
2 27387 098.2781 255.1782 0032808 180.0260 271.3339 14.35617604609103
0 ARIANE 5 R/B
1 27387U 02009B   13289.51005876  .00000077  00000-0  41001-4 0    55
2 27387 098.2786 256.5250 0032884 175.8622 322.6327 14.35618179609308
0 ARIANE 5 R/B
1 27387U 02009B   13290.55543562  .00000105  00000-0  50536-4 0    66
2 27387 098.2789 257.5283 0032952 172.7752 325.3359 14.35618302609453
0 ARIANE 5 R/B
1 27387U 02009B   13291.86422369  .00000102  00000-0  49356-4 0    78
2 27387 098.2791 258.7847 0033033 168.9013 249.4065 14.35618539609646
0 ARIANE 5 R/B
1 27387U 02009B   13293.04592917  .00000118  00000-0  55131-4 0    83
2 27387 098.2793 259.9191 0033112 165.3931 236.7024 14.35618695609817
0 ARIANE 5 R/B
1 27387U 02009B   13294.86101650  .00000134  00000-0  60461-4 0    95
2 27387 098.2794 261.6618 0033220 160.0588 257.3923 14.35619427610073
0 ARIANE 5 R/B
1 27387U 02009B   13295.89928657  .00000148  00000-0  65358-4 0   100
2 27387 098.2794 262.6586 0033272 157.0618 223.3025 14.35619720610224
